# From MPEC 2023-CD7
454P/PANSTARRS,e,19.8102,54.5854,20.1855,4.211179,0.1140509,0.36146629,114.0909,04/22.0/2025,2000,g 14.0,4.0
# From MPEC 2022-Y14
455P/PANSTARRS,e,14.1351,146.1813,237.5343,3.153275,0.1760197,0.30449074,138.5302,04/22.0/2025,2000,g 17.0,4.0
# From MPC182892
456P/PANSTARRS,e,16.9659,243.1485,233.0256,3.170443,0.1745919,0.11613308,1.2146,04/22.0/2025,2000,g 13.5,4.0
# From MPEC 2025-A40
457P/Lemmon-PANSTARRS,e,5.2257,175.9634,104.3259,2.645223,0.2290924,0.11841037,56.1042,04/22.0/2025,2000,g 15.5,4.0
# From MPEC 2023-HD1
458P/Jahn,e,13.6225,1.5650,104.9225,3.859131,0.1300079,0.31725509,117.5621,04/22.0/2025,2000,g 17.3,4.0
# From MPEC 2024-N80
459P/Catalina,e,7.1737,256.9877,205.2223,3.240383,0.1689700,0.57785129,133.5469,04/22.0/2025,2000,g 15.5,4.0
# From MPEC 2023-G14
460P/PANSTARRS,e,18.8999,180.5167,351.9365,3.027173,0.1871321,0.66419839,263.1279,04/22.0/2025,2000,g 21.0,4.0
# From MPEC 2024-GJ3
461P/WISE,e,18.4002,194.3781,174.8326,3.144271,0.1767763,0.56962254,229.0071,04/22.0/2025,2000,g 18.5,4.0
# From MPEC 2024-BE0
462P/LONEOS-PANSTARRS,e,7.0423,322.6817,4.2486,4.864755,0.0918571,0.57835663,91.3717,04/22.0/2025,2000,g 17.0,4.0
# From MPEC 2024-GJ3
463P/NEOWISE,e,29.2959,283.2178,216.3406,2.974163,0.1921573,0.82586045,144.9224,04/22.0/2025,2000,g 18.0,4.0
# From MPEC 2024-Q20
464P/PANSTARRS,e,21.6730,309.5779,267.5385,4.684209,0.0972187,0.28054353,76.2829,04/22.0/2025,2000,g 10.5,4.0
# From MPEC 2024-NE4
465P/Hill,e,25.8622,217.9664,140.9962,6.010423,0.0668877,0.61322228,47.7550,04/22.0/2025,2000,g 12.5,4.0
# From MPEC 2024-JU4
466P/PANSTARRS,e,12.5880,118.5532,197.7608,4.050410,0.1209082,0.47460595,86.4495,04/22.0/2025,2000,g 14.0,4.0
# From MPEC 2025-A40
467P/LINEAR-Grauer,e,2.4792,43.2635,267.5441,5.826774,0.0700748,0.05458562,61.4216,04/22.0/2025,2000,g  9.0,4.0
# From MPEC 2024-O39
468P/SidingSpring,e,50.4512,356.1254,322.5803,7.118468,0.0518949,0.44505777,26.8739,04/22.0/2025,2000,g 11.5,4.0
# From MPEC 2025-A40
469P/PANSTARRS,e,20.1726,178.9674,43.4947,4.342245,0.1089263,0.30795623,334.9018,04/22.0/2025,2000,g 13.5,4.0
# From MPC182892
470P/PANSTARRS,e,8.8442,246.1720,151.7140,4.464904,0.1044686,0.38944756,51.4133,04/22.0/2025,2000,g 15.5,4.0
# From MPC182892
471P/LINEAR-Lemmon,e,4.7967,283.3109,94.8160,5.696336,0.0724954,0.62777129,35.4578,04/22.0/2025,2000,g 12.0,4.0
# From MPEC 2025-H10
472P/NEAT-LINEAR,e,10.8238,205.8689,218.8571,7.788265,0.0453464,0.56499591,12.7712,04/22.0/2025,2000,g 10.5,4.0
# From MPEC 2024-MB8
473P/NEAT,e,56.8995,22.1892,42.9344,7.972212,0.0437861,0.82360417,18.4233,04/22.0/2025,2000,g 13.5,4.0
# From MPEC 2024-B74
474P/Hogan,e,1.0970,26.7486,11.2642,3.130454,0.1779480,0.18809642,115.0068,04/22.0/2025,2000,g 15.5,4.0
# From MPEC 2024-O39
475P/Spacewatch-LINEAR,e,14.5237,147.3625,40.4041,7.316706,0.0498002,0.44272553,16.1538,04/22.0/2025,2000,g 11.0,4.0
# From MPEC 2025-GB9
476P/PANSTARRS,e,19.0052,57.0515,46.7351,4.775768,0.0944364,0.34599055,17.7064,04/22.0/2025,2000,g 12.5,4.0
# From MPEC 2024-GJ3
477P/PANSTARRS,e,8.9138,59.1489,305.8902,3.002374,0.1894553,0.41749873,91.4029,04/22.0/2025,2000,g 14.5,4.0
# From MPEC 2024-L77
478P/ATLAS,e,12.5246,127.2644,13.2336,3.647683,0.1414746,0.34372437,50.2041,04/22.0/2025,2000,g 13.5,4.0
# From MPEC 2024-PC5
479P/Elenin,e,15.3996,295.8322,263.5097,5.623117,0.0739160,0.77888978,25.9997,04/22.0/2025,2000,g 15.0,4.0
# From MPC182893
480P/PANSTARRS,e,13.7169,229.9807,214.3971,4.610427,0.0995617,0.24634906,72.6129,04/22.0/2025,2000,g 12.0,4.0
# From MPEC 2025-A40
481P/Lemmon-PANSTARRS,e,6.0826,93.5503,356.7870,4.681235,0.0973113,0.34348359,63.5200,04/22.0/2025,2000,g 13.5,4.0
# From MPEC 2024-JU4
482P/PANSTARRS,e,24.4864,126.0798,339.7168,3.756675,0.1353626,0.49236945,93.3805,04/22.0/2025,2000,g 13.5,4.0
# From MPEC 2024-R10
483P-A/PANSTARRS,e,14.2012,199.3912,48.9740,3.194258,0.1726430,0.22276455,199.1503,04/22.0/2025,2000,g 13.5,4.0
# From MPEC 2024-R10
483P-B/PANSTARRS,e,14.2020,199.3905,48.9641,3.194185,0.1726489,0.22270517,199.1858,04/22.0/2025,2000,g 17.0,4.0
# From MPEC 2024-DD5
484P/Spacewatch,e,14.4745,265.3855,240.7894,3.757128,0.1353381,0.43287545,217.3988,04/22.0/2025,2000,g 16.0,4.0
# From MPEC 2024-JU4
485P/Sheppard-Tholen,e,10.0161,261.6448,196.0873,6.850388,0.0549707,0.41718549,33.3037,04/22.0/2025,2000,g 13.0,4.0
# From MPEC 2024-R10
486P/Leonard,e,2.2095,219.0244,93.9454,3.628027,0.1426259,0.36358329,2.5900,04/22.0/2025,2000,g 14.5,4.0
# From MPEC 2025-GB9
487P/SidingSpring,e,39.3662,49.2059,0.8487,5.163466,0.0840025,0.64852708,15.4052,04/22.0/2025,2000,g 13.5,4.0
# From MPEC 2024-UA9
488P/NEAT-PANSTARRS,e,11.3670,324.0067,1.6006,3.737626,0.1363987,0.55089456,46.0547,04/22.0/2025,2000,g 16.5,4.0
# From MPEC 2024-Q14
489P/Denning,e,4.0266,20.6111,109.4365,4.423233,0.1059484,0.64707985,336.0185,04/22.0/2025,2000,g 15.5,4.0
# From MPEC 2024-YC7
490P/ATLAS,e,12.2663,307.6047,332.5300,3.029689,0.1868990,0.64720935,38.4669,04/22.0/2025,2000,g 21.0,4.0
# From MPEC 2024-UQ8
491P/Spacewatch-PANSTARRS,e,9.3660,311.6852,298.8905,5.013486,0.0878000,0.25869369,20.0121,04/22.0/2025,2000,g  9.5,4.0
# From MPC182893
492P/LINEAR,e,11.4008,11.3067,40.9873,5.760997,0.0712783,0.69067623,19.6398,04/22.0/2025,2000,g 15.0,4.0
# From MPC182893
493P/LONEOS,e,24.1134,1.1103,83.1969,7.164124,0.0513996,0.46632876,346.2696,04/22.0/2025,2000,g 12.0,2.0
# From MPEC 2024-RQ6
494P/PANSTARRS,e,7.7899,245.0432,48.8747,3.794501,0.1333436,0.35686719,43.4707,04/22.0/2025,2000,g 16.0,4.0
# From MPEC 2025-A40
495P/Christensen,e,26.3544,291.6200,141.3421,4.754660,0.0950659,0.27231015,342.5615,04/22.0/2025,2000,g 11.5,4.0
# From MPEC 2025-H10
496P/Hill,e,14.8145,63.5870,42.2461,6.100642,0.0654095,0.73428314,2.7943,04/22.0/2025,2000,g 14.0,4.0
# From MPEC 2025-H10
497P/Spacewatch-PANSTARRS,e,10.4371,40.3791,32.4105,5.616889,0.0740390,0.63054725,4.8608,04/22.0/2025,2000,g 17.5,4.0
# From MPEC 2025-GB9
498P/LINEAR,e,14.4828,279.2308,179.0823,4.593446,0.1001143,0.57236236,12.4222,04/22.0/2025,2000,g 14.7,4.0
# From MPEC 2025-H10
499P/Catalina,e,24.5823,139.3097,2.5545,3.017527,0.1880301,0.69145623,9.1398,04/22.0/2025,2000,g 18.5,4.0
# From MPC107687
1I/`Oumuamua,h,09/09.4886/2017,122.6778,24.5997,241.6845,1.199252,0.255240,2000,23.0,2.0
# From MPEC 2023-L37
2I/Borisov,h,12/08.5548/2019,44.0527,308.1480,209.1251,3.356633,2.006548,2000,11.0,4.0
